[Satellite]
VERSION=1.1
NAME=FLOCK 2E-1
NICKNAME=FLOCK 2E-1
TLE1=1 41483U 98067JD  17186.29257414  .00011175  00000-0  10164-3 0  9997
TLE2=2 41483  51.6371 284.7114 0001499  85.0595 275.0573 15.68516554 64541
